[
    {
        "CCSDS_OMM_VERS": "3.0",
        "COMMENT": "GENERATED VIA SPACE-TRACK.ORG API",
        "CREATION_DATE": "2025-04-13T03:46:00",
        "ORIGINATOR": "18 SPCS",
        "OBJECT_NAME": "BEIDOU 3M1",
        "OBJECT_ID": "2017-069A",
        "CENTER_NAME": "EARTH",
        "REF_FRAME": "TEME",
        "TIME_SYSTEM": "UTC",
        "MEAN_ELEMENT_THEORY": "SGP4",
        "EPOCH": "2025-04-12T11:53:18.222720",
        "MEAN_MOTION": "1.86231489",
        "ECCENTRICITY": "0.00124800",
        "INCLINATION": "56.3159",
        "RA_OF_ASC_NODE": "77.3122",
        "ARG_OF_PERICENTER": "308.7933",
        "MEAN_ANOMALY": "51.0717",
        "EPHEMERIS_TYPE": "0",
        "CLASSIFICATION_TYPE": "U",
        "NORAD_CAT_ID": "43001",
        "ELEMENT_SET_NO": "999",
        "REV_AT_EPOCH": "5058",
        "BSTAR": "0.00000000000000",
        "MEAN_MOTION_DOT": "-0.00000015",
        "MEAN_MOTION_DDOT": "0.0000000000000",
        "SEMIMAJOR_AXIS": "27906.140",
        "PERIOD": "773.231",
        "APOAPSIS": "21562.832",
        "PERIAPSIS": "21493.178",
        "OBJECT_TYPE": "PAYLOAD",
        "RCS_SIZE": "LARGE",
        "COUNTRY_CODE": "PRC",
        "LAUNCH_DATE": "2017-11-05",
        "SITE": "XSC",
        "DECAY_DATE": null,
        "FILE": "4700252",
        "GP_ID": "285483791",
        "TLE_LINE0": "0 BEIDOU 3M1",
        "TLE_LINE1": "1 43001U 17069A   25102.49534980 -.00000015  00000-0  00000-0 0  9990",
        "TLE_LINE2": "2 43001  56.3159  77.3122 0012480 308.7933  51.0717  1.86231489 50580"
    }
]